{"type":"FeatureCollection","features":[{"type":"Feature","properties":{"ID":3582,"Título":"Artefacto","Año":2007,"Material":"Piedra caliza, hierro fundido y acero corten","img":"https://servicios.lasprovincias.es/infografias/2026/06/upv-esculturas/3582.jpg","Descripción":"Esta obra forma parte de una serie iniciada en el año 2000 titulada \"Artefactos\". En ella realiza una escultura de corte objetual y reflexiona sobre el paso del tiempo reflejado en antiguos artefactos rurales. Partiendo de un determinado planteamiento filosófico y estético acerca de la dualidad entre forma y función, Abril persigue una consecución de la expresión y la belleza gracias al diálogo de correspondencia y determinación mutua existente entre estos dos conceptos.","Apellido":"Abril","Nombre":"Julián"},"geometry":{"type":"Point","coordinates":[-0.342336,39.481317]}},{"type":"Feature","properties":{"ID":458,"Título":"Éter","Año":1993,"Material":"Hierro","Dimensiones":"200 x 200 x 200 cm","img":"https://servicios.lasprovincias.es/infografias/2026/06/upv-esculturas/458.jpg","Descripción":"La obra \"Éter\" se trata de una pieza de estructura abierta que destaca por su fuerza. En ella, el autor intencionadamente parece querer liberarla de cualquier carga semántica y que sea el espectador el que se enfrente a los giros curvos de la obra que parecen querer atrapar el aire para convertirlo en materia escultórica.","Apellido":"Alberola","Nombre":"Salvador"},"geometry":{"type":"Point","coordinates":[-0.342476,39.4827]}},{"type":"Feature","properties":{"ID":1655,"Título":"Horologium","Año":2006,"Material":"Acero inoxidable, vidrio y piedra Ulldecona","Dimensiones":"100 x 70 cm","img":"https://servicios.lasprovincias.es/infografias/2026/06/upv-esculturas/1655.jpg","Descripción":"La pieza perteneciente a una serie de esculturas-objeto titulada \"Relojes de sol\", se trata de un reloj de sol ecuatorial monumental. Las horas las marca en el dial (caústica en forma de nefroide) el reflejo del sol en la superficie metálica que lo rodea. Dado que alrededor de los solsticios este reflejo es tenue, el reloj disponía de un gnomon metálico en forma de pequeña varilla (hoy desaparecido) en el centro del día.","Apellido":"Amorós","Nombre":"Rafael"},"geometry":{"type":"Point","coordinates":[-0.33882,39.480062]}},{"type":"Feature","properties":{"ID":459,"Título":"Figura","Año":1967,"Material":"Bronce","Dimensiones":"183 x 47 x 53 cm","img":"https://servicios.lasprovincias.es/infografias/2026/06/upv-esculturas/459.jpg","Descripción":"Durante su estancia en París abandona las influencias mediterraneístas para adentrarse en un lenguaje expresionista y surrealista. Su preocupación fue esencialmente antropológica: el profundo drama existencial del hombre moderno. Su obra escultórica consigue crear una sensación de irrealidad propia de un mundo deteriorado y artificial habitado por personajes retorcidos y deformes, modelados lenta y obsesivamente: hombres y mujeres de pie o caminando, estáticas efigies de toreros, como las dos que forman parte de la colección escultórica. Hacia el final de su trayectoria Badía realiza sus obras más abstractas, consistentes en urbes, estructuras conformadas por esquemáticos armazones a modo de entramados horizontales y verticales, andamiajes o esqueletos que remiten a la masificación de la ciudad, al agobio de vivir urbano. Es este el caso de la obra \"Figura\", que junto con las dos anteriores ofrecen una visión transversal de su evolución artística.","Apellido":"Badía  Plasencia","Nombre":"Francisco"},"geometry":{"type":"Point","coordinates":[-0.344726,39.481923]}},{"type":"Feature","properties":{"ID":460,"Título":"Mujer de pie","Año":1968,"Material":"Bronce","Dimensiones":"205 x 80 x 80 cm","img":"https://servicios.lasprovincias.es/infografias/2026/06/upv-esculturas/460.jpg","Descripción":"Durante su estancia en París abandona las influencias mediterraneístas para adentrarse en un lenguaje expresionista y surrealista. Su preocupación fue esencialmente antropológica: el profundo drama existencial del hombre moderno. Su obra escultórica consigue crear una sensación de irrealidad propia de un mundo deteriorado y artificial habitado por personajes retorcidos y deformes, modelados lenta y obsesivamente: hombres y mujeres de pie o caminando, estáticas efigies de toreros, como las dos que forman parte de la colección escultórica. Hacia el final de su trayectoria Badía realiza sus obras más abstractas, consistentes en urbes, estructuras conformadas por esquemáticos armazones a modo de entramados horizontales y verticales, andamiajes o esqueletos que remiten a la masificación de la ciudad, al agobio de vivir urbano. Es este el caso de la obra \"Figura\", que junto con las dos anteriores ofrecen una visión transversal de su evolución artística.","Apellido":"Badía  Plasencia","Nombre":"Francisco"},"geometry":{"type":"Point","coordinates":[-0.344675,39.481891]}},{"type":"Feature","properties":{"ID":461,"Título":"Torero","Año":1972,"Material":"Bronce","Dimensiones":"99 x 38 x 22 cm","img":"https://servicios.lasprovincias.es/infografias/2026/06/upv-esculturas/461.jpg","Descripción":"Durante su estancia en París abandona las influencias mediterraneístas para adentrarse en un lenguaje expresionista y surrealista. Su preocupación fue esencialmente antropológica: el profundo drama existencial del hombre moderno. Su obra escultórica consigue crear una sensación de irrealidad propia de un mundo deteriorado y artificial habitado por personajes retorcidos y deformes, modelados lenta y obsesivamente: hombres y mujeres de pie o caminando, estáticas efigies de toreros, como las dos que forman parte de la colección escultórica. Hacia el final de su trayectoria Badía realiza sus obras más abstractas, consistentes en urbes, estructuras conformadas por esquemáticos armazones a modo de entramados horizontales y verticales, andamiajes o esqueletos que remiten a la masificación de la ciudad, al agobio de vivir urbano. Es este el caso de la obra \"Figura\", que junto con las dos anteriores ofrecen una visión transversal de su evolución artística.","Apellido":"Badía  Plasencia","Nombre":"Francisco"},"geometry":{"type":"Point","coordinates":[-0.344701,39.48185]}},{"type":"Feature","properties":{"ID":1159,"Título":"Sunbilla","Año":1965,"Material":"Acero","Dimensiones":"2,35 x 3,88 x 2,40 cm","img":"https://servicios.lasprovincias.es/infografias/2026/06/upv-esculturas/1159.jpg","Descripción":"Dos de sus obras realizadas en acero forman parte del Campus Escultòric, \"Sunbilla\" (1965) y \"Estela\" (1975), ésta última ubicada en el Campus de Alcoy. Ambas se enmarca en el estilo escultórico propio del País Vasco y se encuentran dentro del constructivismo, conponiéndose por la acumulación de formas geométricas en torno  a un eje.%\"Sunbilla\" es el nombre de un pueblo de Navarra en el que los pastores se vieron obligados a emigrar a América, tema por el que se interesó enormemente Basterretxea, participando en la edición de un libro acerca de esta experiencia.","Apellido":"Basterretxea","Nombre":"Néstor"},"geometry":{"type":"Point","coordinates":[-0.345257,39.480511]}},{"type":"Feature","properties":{"ID":284,"Título":"Cósmico geométrico","Año":1989,"Material":"Piedra","Dimensiones":"340 x 125 x 85 cm","img":"https://servicios.lasprovincias.es/infografias/2026/06/upv-esculturas/284.jpg","Descripción":"El lenguaje plástico propio de Bayarri es el cosmoísmo geométrico iniciado en 1967. Éste es fruto de su deseo de acercar al arte aquello que estaba fuera del alcance del individuo corriente. Es decir, el cosmos. Todas las obras incluidas en el Campus Escultòric pertenecen al desarrollo de este estilo personal.%Su obra evolucionó hacia una simplificación de formas cercana a la abstracción. La figuración orgánica se simplifica cada vez más y se conjuga con volúmenes geométricos, otorgando además importancia al espacio vacío como elemento compositivo y metáfora del cosmos.%Un ejemplo donde podemos apreciar esta evolución es la escultura Cósmico geométrico (1989).","Apellido":"Bayarri","Nombre":"Nassio"},"geometry":{"type":"Point","coordinates":[-0.346108,39.481064]}},{"type":"Feature","properties":{"ID":471,"Título":"Cósmico demiurgo","Año":1997,"Material":"Hierro","Dimensiones":"3,5 x 2,55 x 1,15 m","img":"https://servicios.lasprovincias.es/infografias/2026/06/upv-esculturas/471.jpg","Descripción":"El lenguaje plástico propio de Bayarri es el cosmoísmo geométrico iniciado en 1967. Éste es fruto de su deseo de acercar al arte aquello que estaba fuera del alcance del individuo corriente. Es decir, el cosmos. Todas las obras incluidas en el Campus Escultòric pertenecen al desarrollo de este estilo personal.%Su obra evolucionó hacia una simplificación de formas cercana a la abstracción. La figuración orgánica se simplifica cada vez más y se conjuga con volúmenes geométricos, otorgando además importancia al espacio vacío como elemento compositivo y metáfora del cosmos.%Un ejemplo donde podemos apreciar esta evolución es la escultura es Cósmico demiurgo (1997), concebida expresamente para instalarse al aire libre y se expuso por primera vez en la muestra colectiva del Tercer Milenio del Ayuntamiento en la Gran Vía de las Esculturas de Valencia en 1997.","Apellido":"Bayarri","Nombre":"Nassio"},"geometry":{"type":"Point","coordinates":[-0.345288,39.482029]}},{"type":"Feature","properties":{"ID":825,"Título":"Homenaje al Vicerrector J. Manuel Benet","Año":1989,"Material":"Bronce","Dimensiones":"50 x 49 x 60 cm","img":"https://servicios.lasprovincias.es/infografias/2026/06/upv-esculturas/825.jpg","Descripción":"El lenguaje plástico propio de Bayarri es el cosmoísmo geométrico iniciado en 1967. Éste es fruto de su deseo de acercar al arte aquello que estaba fuera del alcance del individuo corriente. Es decir, el cosmos. Todas las obras incluidas en el Campus Escultòric pertenecen al desarrollo de este estilo personal.%Su obra evolucionó hacia una simplificación de formas cercana a la abstracción. La figuración orgánica se simplifica cada vez más y se conjuga con volúmenes geométricos, otorgando además importancia al espacio vacío como elemento compositivo y metáfora del cosmos.%Un ejemplo donde podemos apreciar esta evolución es la escultura Homenaje al Vicerrector J. Manuel Benet (1989)","Apellido":"Bayarri","Nombre":"Nassio"},"geometry":{"type":"Point","coordinates":[-0.341014,39.480486]}},{"type":"Feature","properties":{"ID":986,"Título":"Hombre saliendo de una caja espacial","Año":1975,"Material":"Bronce","Dimensiones":"182 x 42 x 95 cm","img":"https://servicios.lasprovincias.es/infografias/2026/06/upv-esculturas/986.jpg","Descripción":"El lenguaje plástico propio de Bayarri es el cosmoísmo geométrico iniciado en 1967. Éste es fruto de su deseo de acercar al arte aquello que estaba fuera del alcance del individuo corriente. Es decir, el cosmos. Todas las obras incluidas en el Campus Escultòric pertenecen al desarrollo de este estilo personal.%En Hombre saliendo de una caja espacial (la más temprana de las cuatro, 1975) ya se puede observar una simplificación de formas cercana a la abstracción De aquí en adelante la figuración orgánica se simplifica cada vez más y se conjuga con volúmenes geométricos, otorgando además importancia al espacio vacío como elemento compositivo y metáfora del cosmos.","Apellido":"Bayarri","Nombre":"Nassio"},"geometry":{"type":"Point","coordinates":[-0.338417,39.480514]}},{"type":"Feature","properties":{"ID":1459,"Título":"Jump!?","Año":1985,"Material":"Acero","Dimensiones":"550 x 220 x 100 cm","img":"https://servicios.lasprovincias.es/infografias/2026/06/upv-esculturas/1459.jpg","Descripción":"La escultura \"Jump\", que se instaló en el Campus Escultòric UPV en 2004, consiste en varias capas de acero conectadas con remaches. La mitad de la pieza se encuentra elevada en el aire como un gran arco. Interesada en el equilibrio, la tensión y el movimiento, la escultura funciona igual que un gran muelle","Apellido":"Bayer","Nombre":"Susanne"},"geometry":{"type":"Point","coordinates":[-0.33922,39.480106]}},{"type":"Feature","properties":{"ID":462,"Título":"Alcudia","Año":1996,"Material":"Poliéster y fibra de vidrio","Dimensiones":"240 x 200 x 80 cm","img":"https://servicios.lasprovincias.es/infografias/2026/06/upv-esculturas/462.jpg","Descripción":"Su obra conjuga arte, técnica y ciencia pudiendo encontrar en sus piezas escultóricas conceptos matemáticos como la proporción aurea, la combinatoria, el nudo bordiano, el teorema de Tales, el teorema de los cuatro colores o las espirales. En \"Alcudia\" es precisamente la espiral la forma de la que se sirve para la representación libre de un torso desnudo recostado, que evoca una continuidad espacial, como si se tratase de un fragmento que pudiera extenderse de modo indefinido. Además, los giros curvos de esta pieza constituyen uno de los recursos para la búsqueda de los límites del espacio interior escultórico que interesaba a Berrocal.","Apellido":"Berrocal","Nombre":"Miguel"},"geometry":{"type":"Point","coordinates":[-0.345521,39.480357]}},{"type":"Feature","properties":{"ID":722,"Título":"El origen de la vida","Año":2001,"Material":"Acero","Dimensiones":"210 x 136 x 200 cm","img":"https://servicios.lasprovincias.es/infografias/2026/06/upv-esculturas/722.jpg","Descripción":"En \"El origen de la vida\" deja patente su interés en la reflexión acerca de las relaciones entre arte y ciencia. Com ello busca expresar el concepto de creación y ciclo mediante esta escultura de líneas contínuas y circulares. La obra parece sugerir que por el acero inoxidable y los niquelados de su elíptica forma fluye una energía vital, irradiación que llegará a nosotros con capacidad para transformarla.","Apellido":"Bertomeu  Blay","Nombre":"Xavier"},"geometry":{"type":"Point","coordinates":[-0.344448,39.48179]}},{"type":"Feature","properties":{"ID":1157,"Título":"Camuflaje [ Torre de defensa ]","Año":"1997/2001","Material":"Cerámica","Dimensiones":"450 x 225 cm","img":"https://servicios.lasprovincias.es/infografias/2026/06/upv-esculturas/1157.jpg","Descripción":"La obra titulada \"Camuflaje [Torre de defensa]\", realizada en cerámica y que pertenece a la colección escultòrica desde 2003, es un claro ejemplo de su poética personal. Con ella, intenta reflejar cómo desde el inicio de la historia el hombre no ha dejado de construirse parapetos, troneras, saeteras, garitos de vigilancia, etc., para esconderse.","Apellido":"Blasco","Nombre":"Arcadio"},"geometry":{"type":"Point","coordinates":[-0.339493,39.479957]}},{"type":"Feature","properties":{"ID":463,"Título":"Tres verticales","Año":1992,"Material":"Bronce","Dimensiones":"175 x 125 x 320 cm","img":"https://servicios.lasprovincias.es/infografias/2026/06/upv-esculturas/463.jpg","Descripción":"La reprensentación del cuerpo es el leit motiv fundamental de su obra, adscrita a la denominada \"Generación de los ochenta\". Con la pieza \"Tres verticales\", que forma parte del Campus Escultòric desde xx, profundiza en su reflexión antropomórfica con una propuesta en la que la renovación formal lanza un guiño a determinados hitos del pasado de la escultura. En su obra se alía posmodernidad, búsqueda de expresividad y revisitación histórica, en la que también queda patente su formación en arquitectura a través de la intención compositiva y en la conjugación de volúmenes, vectores y tensiones que convergen.","Apellido":"Bordes","Nombre":"Juan"},"geometry":{"type":"Point","coordinates":[-0.345699,39.481021]}},{"type":"Feature","properties":{"ID":723,"Título":"Yo en tu lugar, yo frente a ti, yo tu mitad","Año":1999,"Material":"Acero","Dimensiones":"315 x 150 x 108 cm","img":"https://servicios.lasprovincias.es/infografias/2026/06/upv-esculturas/723.jpg","Descripción":"En su obra lleva a cabo una investigación continua sobre los procesos vitales vinculados a la figura femenina y su situación dentro de la sociedad. El caso \"Yo en tu lugar, yo frente a ti, yo tu mitad\" es una reflexión acerca del concepto de paridad. Cuestiona la situación de la mujer en la sociedad en el ámbito profesional y su relación con los hombres. El título de la escultura está planteado en tres partes que responden a tres momentos de reacción ante este deseo de paridad. \"Yo en tu lugar\" entendido por el hombre que se supone poseedor de un lugar que le pertenece y que la mujer ocuparía. Esta situación nos lleva a la segunda parte del título: \"yo frente a ti\". Un enfrentamiento que solo puede resolverse entendiendo la tercera parte del título: \"yo tu mitad\", mediante el diálogo y el razonamiento entendemos que se trata de ser la mitad del otro, de entender que cada uno es el cincuenta por cien de la sociedad y por tanto, así tendría que quedar reflejado consiguiendo la ansiada paridad.","Apellido":"Carbonell","Nombre":"Amparo"},"geometry":{"type":"Point","coordinates":[-0.34497,39.482099]}},{"type":"Feature","properties":{"ID":1297,"Título":"Torso H","Año":2003,"Material":"Bronce","Dimensiones":"220 x 175 x 85 cm","img":"https://servicios.lasprovincias.es/infografias/2026/06/upv-esculturas/1297.jpg","Descripción":"Los elementos que inspiran su obra corresponden a un repertorio que refleja sus aficiones por lo industrial, el comercio, la ferretería o la propia sastrería tradicional. Es el caso de la obra \"Torso H\", en la que se aprecia la utilización libre de patrones de sastrería que se convierten en una camisa simplificada a la que le falta alguien que la vista. Como indican numerosos autores, este vaciamiento tiene como fin denunciar la ausencia del hombre en el mismo universo de los objetos y ropas que se le brindan, configurando así un proyecto de carácter ético, enfrentado a la sociedad de consumo.","Apellido":"Cardells","Nombre":"Joan"},"geometry":{"type":"Point","coordinates":[-0.348155,39.481234]}},{"type":"Feature","properties":{"ID":81,"Título":"Homenaje a Celaya","Año":1990,"Material":"Metacrilato","Dimensiones":"1445 x 146 cm","img":"https://servicios.lasprovincias.es/infografias/2026/06/upv-esculturas/81.jpg","Descripción":"Con la escultura \"Homenaje a Celaya\" Castillejos realiza una escultura de planteamiento cíclico diurno/nocturno. Concebida formalmente como un totém cilíndrico en el que parece latir el deseo brancusiano de escultura infinita, en la oscuridad de la noche la fuente de luz de este vertical volúmen se proyecta fuera de sí misma a modo de hito señalizador o punto de encuentro en nuestro campus escultórico.","Apellido":"Castillejos","Nombre":"Macario"},"geometry":{"type":"Point","coordinates":[-0.34511,39.480573]}},{"type":"Feature","properties":{"ID":464,"Título":"Crónica del viento","Año":1991,"Material":"Bronce","Dimensiones":"110 x 50 x 210 cm","img":"https://servicios.lasprovincias.es/infografias/2026/06/upv-esculturas/464.jpg","Descripción":"La escultura \"Crónica del viento\" refleja claramente como su obra se fundamenta en dos principios: el hierro forjado, material mayoritario de sus esculturas; y la espiral, como símbolo y solución formal recurrente a lo largo de toda su carrera. Ahí se contienen sintetizadas los fundamentos de su trabajo: la noción del plegado y desplegado, el desarrollo horizontal y vertical en el espacio y en la curvatura de un material que en sus manos, y recuperando la tradición de la forja, se hace dúctil. La producción escultórica de Chirino se extiende y agrupa cronológicamente de acuerdo a motivos concretos, cuyo referente se encuentra siempre y en último término en la naturaleza y el mundo real.","Apellido":"Chirino","Nombre":"Martín"},"geometry":{"type":"Point","coordinates":[-0.345946,39.481443]}},{"type":"Feature","properties":{"ID":1587,"Título":"Alegoría a la mujer","Año":2005,"Material":"Bronce","Dimensiones":"400 x 50 x 50 cm","img":"https://servicios.lasprovincias.es/infografias/2026/06/upv-esculturas/1587.jpg","Descripción":"La verticalidad, fuertemente marcada en la obra \"Alegoría a la mujer\", es una de las características que en primer lugar llama la atención de su producción artística. %Esta escultura resulta estilizada, con una mirada permanente hacia el cielo y rematada en pináculo puntiagudo, como si tratara de incrustarse en la atmósfera para despegar y volar. Junto a la verticalidad, destaca por su finura y la suavidad de sus texturas, que invitan a ver y a tocar simultáneamente. La obra tiene como referente la figura femenina, característica común a toda su producción artística, y su ejecución tiene un lenguaje abstracto de líneas curvas perfectamente trabajadas, de incisiones que penetran en el volumen y lo fracturan ligeramente para acusar más los huecos y los espacios vacíos.","Apellido":"Doménech Ciriaco","Nombre":"José"},"geometry":{"type":"Point","coordinates":[-0.345823,39.480867]}},{"type":"Feature","properties":{"ID":1341,"Título":"Mentoring","Año":2003,"Material":"Bronce","Dimensiones":"477 x 208 x 105 cm","img":"https://servicios.lasprovincias.es/infografias/2026/06/upv-esculturas/1341.jpg","Descripción":"Según palabras de Daly, \"Mentoring es una pieza que conjuga formas orgánicas y mecánicas, pensada para su actual ubicación en el Campus de Vera de la UPV y cuyas cabezas grande y pequeña representan al profesor y al estudiante\".","Apellido":"Daly","Nombre":"Stephen"},"geometry":{"type":"Point","coordinates":[-0.337763,39.479272]}},{"type":"Feature","properties":{"ID":1088,"Título":"Arquitectura del silencio","Año":1997,"Material":"Acero","Dimensiones":"344 x 344 x 92 cm","img":"https://servicios.lasprovincias.es/infografias/2026/06/upv-esculturas/1088.jpg","Descripción":"En la escultura \"Arquitectura del Silencio\" se refleja su profundo interés por el espacio, que le llevó a trabajar en numerosas ocasiones mediante la instalación, siendo una de las formas utilizadas repetitivamente en algunas de éstas.%En esta pieza se observa una pureza de líneas constructivas y una tensión generada gracias al espacio vacío, concepto imprescindible en su poética escultórica, junto con otros como el Silencio, el Caos, el Orden, el Tiempo y el Tránsito vida-muerte","Apellido":"De Soto Arándiga","Nombre":"Ramón"},"geometry":{"type":"Point","coordinates":[-0.343851,39.481777]}},{"type":"Feature","properties":{"ID":116,"Título":"Edges I","Año":1990,"Material":"Hierro","Dimensiones":"240 x 154 x 190 cm","img":"https://servicios.lasprovincias.es/infografias/2026/06/upv-esculturas/116.jpg","Descripción":"La escultura \"Edges\" tiene un planteamiento constructivista, estableciendo relaciones de volúmenes, masas y planos en un calculado proceso geométrico que conjuga líneas, cubos, paralelípedos, planos en evolución, aristas y vértices. Podemos aventurar, como el propio artista indica, un deseo de imaginar piezas como esta a gran escala para que el espectador pudiese transitarlas, experimentando así el \"dentro-fuera\" y \"lleno-vacío\". \"Edges\" supera la frontalidad sin tener una perspectiva más importante que el resto y presenta solo varios aspectos diferentes que se suceden y que aparecen a medida que el espectador se mueve a su alrededor.","Apellido":"Dies  Caballero","Nombre":"José Ángel"},"geometry":{"type":"Point","coordinates":[-0.345101,39.480246]}},{"type":"Feature","properties":{"ID":465,"Título":"Pórtico","Año":1994,"Material":"Piedra","Dimensiones":"360 x 450 x 150 cm","img":"https://servicios.lasprovincias.es/infografias/2026/06/upv-esculturas/465.jpg","Descripción":"En la obra \"Pórtico\", se une arquitectura y escultura, cobrando gran protagonismo el elemento constructivo del arco, asemejándose a un dolmen, un monumento ancestral o a las puertas de algunas primitivas ciudades.%Esta escultura sugiere un lugar de paso metafórico a otro tempo, tal vez evocando el tránsito a otras estaciones, los solsticios y los equinoccios, en palabras del propio artista, \"Máquina de entrar y salir. Tránsito al misterio de solsticios y equinoccios. Pórtico al sol de la mañana.\"","Apellido":"Escobar  Loret de Mola","Nombre":"Emilio"},"geometry":{"type":"Point","coordinates":[-0.346477,39.481315]}},{"type":"Feature","properties":{"ID":129,"Título":"Paloma","Año":1989,"Material":"Bronce","Dimensiones":"700 x 109 x 109 cm","img":"https://servicios.lasprovincias.es/infografias/2026/06/upv-esculturas/129.jpg","Descripción":"\"Paloma\" representa el símbolo universal de la paz y las manos de los universitarios que apoyan este próposito.","Apellido":"Esteve  Edo","Nombre":"José"},"geometry":{"type":"Point","coordinates":[-0.345572,39.481795]}},{"type":"Feature","properties":{"ID":725,"Título":"El estudio","Año":1999,"Material":"Bronce","Dimensiones":"250 x 110 cm","img":"https://servicios.lasprovincias.es/infografias/2026/06/upv-esculturas/725.jpg","Descripción":"La temática de \"El estudio\" se basa en lo humano y todo lo que le rodea.","Apellido":"Esteve  Edo","Nombre":"José"},"geometry":{"type":"Point","coordinates":[-0.345495,39.484015]}},{"type":"Feature","properties":{"ID":1910,"Título":"Homenaje a la Dra. Juana Portaceli","Año":2007,"Material":"Bronce","Dimensiones":"40 x 50 x 75 cm","img":"https://servicios.lasprovincias.es/infografias/2026/06/upv-esculturas/1910.jpg","Descripción":"La escultura dedicada a la Dra. Juana Portaceli, fallecida en 2004, es un homenaje póstumo en memoria de sus veintitres años como jefa del gabinete médico de la UPV.","Apellido":"Esteve  Edo","Nombre":"José"},"geometry":{"type":"Point","coordinates":[-0.340177,39.480169]}},{"type":"Feature","properties":{"ID":4671,"Título":"A Dios rodando y el mazo dando","Año":1994,"Material":"Piedra","img":"https://servicios.lasprovincias.es/infografias/2026/06/upv-esculturas/4671.jpg","Descripción":"Esta escultura, realizada conjuntamente por 3 autores, fue donada al fondo del Campus Escultòric UPV en1998.%Se trata de una obra figurativa que consta de tres piezas: una base cuadrada con bordes redondeados, sobre la que descansa una gran maza, compuesta por una estructura pétrea de gandes dimensiones ensamblada en un cilindro leñoso.%Según los archivos documentales del Área de Fondo de Arte y Patrimonio  - UPV, esta escultura estuvo ubicada en la plaza del Convento de los Padres Franciscanos en Benissa (Alicante).%La inscripción que presenta en la parte anterior del mazo, juega con el refrán popular \"A Dios rogando y con el mazo dando\".","Apellido":"Esteve","Nombre":"Victoria"},"geometry":{"type":"Point","coordinates":[-0.345108,39.480799]}},{"type":"Feature","properties":{"ID":2220,"Título":"Un círculo que no es un círculo","Año":2008,"Material":"Piedra","img":"https://servicios.lasprovincias.es/infografias/2026/06/upv-esculturas/2220.jpg","Descripción":"En la obra \"Un círculo que no es un círculo\" establece un diálogo entre escultura y arquitectura, tan propio de sus proyectos al aire libre, caracterizados por un vivo interés por repensar las prácticas modernistas mediante sutiles alteraciones de paisajes y objetos ya existentes con la intención de revelar relatos de construcciones y transformaciones allí enterrados. La relación de la pieza con el entorno es dinámica puesto que al estar situada en el patio interior de la Facultad de Informática rompe la rectitud de la planta de dicho patio y a su vez funciona como punto de encuentro e intercambio, convirtiéndose a veces en mobiliario urbano para la charla o el descanso.","Apellido":"Fragateiro","Nombre":"Fernanda"},"geometry":{"type":"Point","coordinates":[-0.347893,39.48182]}},{"type":"Feature","properties":{"ID":144,"Título":"Obelisco","Año":1990,"Material":"Acero","Dimensiones":"540 x 60 x 40 cm","img":"https://servicios.lasprovincias.es/infografias/2026/06/upv-esculturas/144.jpg","Descripción":"En la obra \"Obelisco\" , de sóbria apariencia en volumen y color, introduce la verticalidad como metáfora de la búsqueda del sentido transcendental de la existencia del hombre. El orden y la mesura se quiebran en limpios paralepípedos, introduciéndonos un instante de inquietud.","Apellido":"Frechilla del Rey","Nombre":"Lorenzo"},"geometry":{"type":"Point","coordinates":[-0.346268,39.48132]}},{"type":"Feature","properties":{"ID":146,"Título":"Argos V","Año":1988,"Material":"Acero","Dimensiones":"475 x 65 x 65 cm","img":"https://servicios.lasprovincias.es/infografias/2026/06/upv-esculturas/146.jpg","Descripción":"\"Argos V\",  remite con la verticalidad de sus prismas, a iconos de nuestra civilización tecnológica: fuselajes de naves aéreas, cohetes o totems. Las sucesivas superficies (a modo de pieles de una estructura biomecánica) conforman enigmáticas concavidades y convexidades que nos atrapan en el juego de lo visible y lo oculto. Todas las líneas conducen a un foco del que dimana su centrífuga fuerza: ese metafórico ojo de Polifemo que advierte de la existencia de un espacio interior, sólidamente encerrado, que pugna por salir al exterior.","Apellido":"Gabino","Nombre":"Amadeo"},"geometry":{"type":"Point","coordinates":[-0.346056,39.480755]}},{"type":"Feature","properties":{"ID":726,"Título":"Pareja","Año":2001,"Material":"Bronce","Dimensiones":"100 x 70 cm","img":"https://servicios.lasprovincias.es/infografias/2026/06/upv-esculturas/726.jpg","Descripción":"La obra \"Pareja\", que forma parte de la serie \"Personaje solo\", propone una figuración intimista de dos personajes simplificados, de formas suaves y cerradas, un hombre y una mujer convertidos en actores de mil situaciones. La artista nos habla de identidades, de relaciones personales y de posturas (de una y del otro, ambos ante la sociedad), de espacios públicos y privados, del individuo, de soledades y compañías, trasladando lo particular a lo universal,. Este tipo de reflexiones son la temática  común a toda su producción artística, que se nutre de poesía, teatro y épica.","Apellido":"Grau","Nombre":"Carmen"},"geometry":{"type":"Point","coordinates":[-0.340291,39.480693]}},{"type":"Feature","properties":{"ID":2221,"Título":"Gotas de rocío","Año":2007,"Material":"Cristal","Dimensiones":"Variables","img":"https://servicios.lasprovincias.es/infografias/2026/06/upv-esculturas/2221.jpg","Descripción":"La pieza \"Gotas de rocío\" es un claro ejemplo de su compromiso personal por una sensibilización ecológica. En este caso su preocupación es el uso que se ha hecho del agua con motivo de lo que llamamos \"progreso\" hasta convertirse en un recurso escaso influyendo en las condiciones de vida sobre la Tierra. En ella propone crear una imagen poética del agua que le devuelva su valor imprescindible para la vida y su importancia en una dimensión sacra, tomando para ello el símbolo del rocío como redención, regeneración y fuerza generatriz.","Apellido":"Gutiérrez","Nombre":"Yolanda"},"geometry":{"type":"Point","coordinates":[-0.334498,39.478089]}},{"type":"Feature","properties":{"ID":728,"Título":"Gladiador","Año":1997,"Material":"Acero","Dimensiones":"105 x 70 x 115 cm","img":"https://servicios.lasprovincias.es/infografias/2026/06/upv-esculturas/728.jpg","Descripción":"En su pieza \"Gladiador\" traslada al mundo físico ideas, sensaciones y vivencias propias mediante un enfrentamiento entre materiales. Este enfrentamiento conseguido mediante el ensamblaje del acero y el mármol se nos propone para la contemplación estética y, a la vez, para que su impactante imagen adquiera el valor de metáfora de la violencia anidada en nuestra sociedad posindustrial. Las connotaciones inherentes a la figura del gladiador-lucha, honor, gloria, muerte, rito, espectáculo…-, se presentan en esta abstracta recreación alegórica.","Apellido":"Lara","Nombre":"Tomás Vicente"},"geometry":{"type":"Point","coordinates":[-0.345431,39.482494]}},{"type":"Feature","properties":{"ID":208,"Título":"S/T","Año":1992,"Material":"Hierro y poliéster","Dimensiones":"(3x) 125 x 67 x 67 cm ","img":"https://servicios.lasprovincias.es/infografias/2026/06/upv-esculturas/208.jpg","Descripción":"En esta obra del 1992 propone la experimentación con los materiales, un único volumen con tres acabados distintos: mate, espejo y estampado que permite distintas composiciones y funciona como hitos en el camino.","Apellido":"Llavería","Nombre":"Joan"},"geometry":{"type":"Point","coordinates":[-0.345319,39.482717]}},{"type":"Feature","properties":{"ID":2222,"Título":"Mindstorms","Año":"2004/2010","Material":"Acero","Dimensiones":"Variables","img":"https://servicios.lasprovincias.es/infografias/2026/06/upv-esculturas/2222.jpg","Descripción":"La colección escultórica cuenta con tres de sus obras. En la escultura \"Mindstorms\" se inspira en el popular juego infantil del mecano, con el que realiza un ejercicio de cambio de escala. La pieza se relaciona con el entorno debido a que en estos edificios se trabajan las posibilidades técnicas para ir descubriendo poco a poco nuevos avances tecnológicos.","Apellido":"Llavería","Nombre":"Joan"},"geometry":{"type":"Point","coordinates":[-0.334803,39.478586]}},{"type":"Feature","properties":{"ID":729,"Título":"Técnia","Año":1993,"Material":"Hierro","Dimensiones":"400  x 180 x 180 cm","img":"https://servicios.lasprovincias.es/infografias/2026/06/upv-esculturas/729.jpg","Descripción":"La pieza \"Técnia\" nos sitúa ante procesos compositivos y constructivos que son propios de la ingeniería industrial. Confeccionada con hierro soldado y curvado, esta evocadora y expresiva escultura abstracta ofrece a la mirada del espectador la simetría de dos truncados obeliscos divergentes, si bien unidos férreamente en la parte inferior por anillos que en su circularidad remiten a esa búsqueda de la totalidad y la firmeza, la exactitud y la armonía.","Apellido":"Llorens","Nombre":"Alfredo"},"geometry":{"type":"Point","coordinates":[-0.342461,39.482425]}},{"type":"Feature","properties":{"ID":730,"Título":"Trípodes, oblicuos y conos","Año":1999,"Material":"Acero","Dimensiones":"285 x 230 x 270 cm","img":"https://servicios.lasprovincias.es/infografias/2026/06/upv-esculturas/730.jpg","Descripción":"\"Trípodes, oblicuos y conos\" , perteneciente a la serie \"Suplemento al Vacío\", es una escultura de propósito experimental, fruto de una reflexión sobre la estructura enfocada a la búsqueda de los límites donde configura unas formas que parecen mantenerse en  equilibrio precario cuya tensión se acentúa con los conos de apariencia pesada que peden de ellos, creando así una imagen contínua de resistencia al desmoronamiento inminente.","Apellido":"Marco","Nombre":"Ángeles"},"geometry":{"type":"Point","coordinates":[-0.339062,39.479869]}},{"type":"Feature","properties":{"ID":1294,"Título":"Cactus","Año":"2003/2004","Material":"Acero","Dimensiones":"170 x 140 cm","img":"https://servicios.lasprovincias.es/infografias/2026/06/upv-esculturas/1294.jpg","Descripción":"La pieza es una figura en forma de cactus en la que se han colocado en su interior cactus auténticos que se mantienen vivos a través de un sistema interno de riego por goteo. Según el propio artista, la obra propone una reflexión sobre la relación \"entre la naturaleza y el artificio\" y pretende denunciar \"el destrozo que supuso la construcción del campus universitario en una zona de huerta en la que había una biodiversidad fantástica\"  en la que lo artificial está representado en su exterior, ya que las láminas de acero inoxidable crean un aspecto \"falso\" y acentúan la imagen \"muy gráfica repetida en los cómics y tebeos que ya de por sí tiene esta especie\"%Para confeccionar la estructura, Mariscal realizó una primera maqueta de madera pero desechó la idea de llevarla a la realidad porque significaría \"mucho tiempo y mucho dinero\". Posteriormente, elaboró un diseño por medio de un programa de 3D \"que me permitió combinar formas cóncavas y convexas e ir jugando con los espejos\". El reflejo que ofrece la pieza es \"muy divertido, sobre todo de cara a los niños\", al tiempo que simbólico, ya que \"tiene el sentido de recoger todo lo que está a su alrededor\".","Apellido":"Mariscal","Nombre":"Javier"},"geometry":{"type":"Point","coordinates":[-0.341519,39.480948]}},{"type":"Feature","properties":{"ID":226,"Título":"Integración","Año":1991,"Material":"Acero","Dimensiones":"400 x 460 x 270 cm","img":"https://servicios.lasprovincias.es/infografias/2026/06/upv-esculturas/226.jpg","Descripción":"En la pieza \"Integración\", emplea formas orgánicas características de sus obras, y en la que se observan juegos complementarios de concavidades y convexidades, que se retuercen, se contraponen y se quiebran en busca de una expresividad humana y subjetiva.%La depuración conseguida en el pulido de la superfície constituyen rasgos definitorios de una abstracción elegante que ha logrado sintetizar referentes de las vanguardias para llegar a una peculiar poética plástica de carácter expresionista, por la que se le ha considerado un escultor ligado al informalismo.","Apellido":"Martí  Badenes","Nombre":"Marcel"},"geometry":{"type":"Point","coordinates":[-0.346265,39.481595]}},{"type":"Feature","properties":{"ID":731,"Título":"Pléyades","Año":2000,"Material":"Acero","Dimensiones":"140 x 200 cm","img":"https://servicios.lasprovincias.es/infografias/2026/06/upv-esculturas/731.jpg","Descripción":"En su obra \"Pléyades\", trabaja bajo el concepto del \"site specific\", ideando así el proyecto en función del espacio en el que se va a ubicar, rehuyendo de los recursos de la monumentalidad y la verticalidad proponiendo una pieza a ras del suelo. Se ideó para ser incluida en la remodelación arquitectónica del paseo principal, jugando a la vez con la integración y el camuflaje valiéndose de los materiales propios de la construcción. Hace referencia a una constelación estelar mediante elementos mínimos de acero inoxidable que marcan tránsitos y conexiones entre los metafóricos astros. Se trata por tanto de una obra que inscrita en la órbita del minimalismo.","Apellido":"Martínez","Nombre":"Emilio"},"geometry":{"type":"Point","coordinates":[-0.345195,39.482151]}},{"type":"Feature","properties":{"ID":269,"Título":"Procesión","Año":1984,"Material":"Bronce","Dimensiones":"310 x 21 x 10 cm","img":"https://servicios.lasprovincias.es/infografias/2026/06/upv-esculturas/269.jpg","Descripción":"Con intencionalidad escenográfica y simbólica de este conjunto escultórico compuesto por figuras humanas abstractas, el escultor plantea la conciliación de homogeneidad y heterogeneidad, sociedad y persona. Según Toshiharu Miki  \"es una forma de representar la voluntad del hombre […] Al final, un individuo es solo un individuo, sin embargo, cuando se reúnen desarrollan un significado orgánico global […] cuando creé ‘Procession’ me concentré en contemplar cada figura individualmente antes de combinarlas orgánicamente\".","Apellido":"Miki","Nombre":"Toshiharu"},"geometry":{"type":"Point","coordinates":[-0.347189,39.481039]}},{"type":"Feature","properties":{"ID":732,"Título":"Gades, la dança","Año":2001,"Material":"Bronce y piedra","Dimensiones":"60,7 x 2250 x 157,5 cm","img":"https://servicios.lasprovincias.es/infografias/2026/06/upv-esculturas/732.jpg","Descripción":"Esta escultura es un homenje a la amistad de Miró con Antonio Gades, al que considera \"el mejor bailarín de flamenco que ha tenido España\", y al mundo de la danza en general. La obra es un conjunto de treinta torsos iguales del bailarin que se repiten a lo largo de un gran pedestal de unos diez metros de largo aproximademente. En este caso pretende huir del problema del escultor, que siempre tiene la intención de competir en altura según sus propias palabras \"no luchamos contra la altura, sino que pretendemos acaparar la horizontalidad del terreno […] juego con la repetición de la imagen, con la exposición visual de las perspectivas y con la comparación de la misma imagen que solo con un matiz de color y una mínima modificación de la forma va creando la figura\".","Apellido":"Miró","Nombre":"Antoni"},"geometry":{"type":"Point","coordinates":[-0.346424,39.481563]}},{"type":"Feature","properties":{"ID":743,"Título":"Murmullos del bosque","Año":2000,"Material":"Bronce","Dimensiones":"300 x 200 x 150 cm","img":"https://servicios.lasprovincias.es/infografias/2026/06/upv-esculturas/743.jpg","Descripción":"En este caso Miguel Molina nos presenta una obra que fue concebida años atrás en su primera exposición individual en 1989, compuesta por un hacha de cuyo mango brota una rama. De este modo, busca aunar los contrarios muerte-vida y destrucción-creación en una metáfora de la transformación que materializa incluyendo una vid que ha ido creciendo a lo largo de la escultura. Así, la pieza se transforma constantemente mostrando el hacha en otoño y ocultándola en verano entre las hojas verdes, en una renovación continua. El título de la pieza nos da las posibles pistas para su interpretación. \"Murmullos del bosque\" es una frase extraída de la ópera \"Sigfrido\" de Wagner. En ella, Sigfrido se interna en el bosque siguiendo el canto de un pájaro misterioso. Va en busca del dragón cuya muerte le otorgará a él la inmortalidad. En el momento en que lo caza y se baña en su sangre para convertirse en inmortal, cae sobre su espalda una hoja. Ese único espacio de piel que no se baña en sangre se convierte en su punto débil y será el motivo de su muerte. De este modo Molina traslada la reflexión siguiente a su obra: \"de cualquier destrucción e imposición violenta pueden surgir puntos débiles que la transformen cambiando el curso de los acontecimientos\".","Apellido":"Molina","Nombre":"Miguel"},"geometry":{"type":"Point","coordinates":[-0.339977,39.479993]}},{"type":"Feature","properties":{"ID":727,"Título":"Macetero","Año":1984,"Material":"Acero","Dimensiones":"5000 x 2000 x 2500 cm","img":"https://servicios.lasprovincias.es/infografias/2026/06/upv-esculturas/727.jpg","Descripción":"Esta pieza es una reinterpretación particular de un macetero y representa un claro ejemplo de las investigaciones llevadas a cabo en los años setenta sobre la luz y el color en el metacrilato, que más adelante trasladó al ámbito de la escultura, realizando unas planchas metálicas dobladas que mantienen la huella del blanco y el gris de sus obras anteriores. Nos muestra además con los vitales y alegres pictogramas de esta obra su capacidad inventiva.","Apellido":"Hernández  Mompó","Nombre":"Manuel"},"geometry":{"type":"Point","coordinates":[-0.346099,39.482181]}},{"type":"Feature","properties":{"ID":744,"Título":"Cadascú al seu lloc","Año":1992,"Material":"Barro","Dimensiones":"700 x 700 x 700 cm","img":"https://servicios.lasprovincias.es/infografias/2026/06/upv-esculturas/744.jpg","Descripción":"Esta obra está elaborada con barro, elemento con el que más se identificó Evarist Navarro debido a la relación del negocio familiar con este material. En un primer momento, esta pieza fue realizada para la exposición \"Territorio Plural\" de Bancaja y trata de revalorizar el uso del ladrillo presente en la arquitectura de todas las culturas y llevarlo a un lenguaje de contemporaneidad a través de esculturas de gran escala frente a una tradición que ha destinado el barro a obras de medios formatos o domésticos.%La escultura parte de la idea de una mano, donde cada dedo es un muro que representa a un miembro de la familia fruto de la necesidad de tratar este tema debido al fallecimiento de su padre. Como el propio título indica el autor quiere expresar como cada persona ocupa su lugar en los diferentes ámbitos de la vida.","Apellido":"Navarro","Nombre":"Evarist"},"geometry":{"type":"Point","coordinates":[-0.338538,39.479488]}},{"type":"Feature","properties":{"ID":466,"Título":"Cimall","Año":1992,"Material":"Acero","Dimensiones":"500 x 70 x 70 cm","img":"https://servicios.lasprovincias.es/infografias/2026/06/upv-esculturas/466.jpg","Descripción":"Esta obra de carácter ascensional es un elemento icónico extraído del amplio repertorio de sus montajes escultóricos representando ciudades y en ella se puede rastrear la influencia de las formas arquitectónicas del polígono y la fábrica. La instalación de estos elementos en sus \"ciudades\" conecta aspectos pictóricos, escultóricos, arquitectónicos y urbanísticos, conformando una entidad compleja y enriqueciendo sus posibilidades significantes.","Apellido":"Navarro","Nombre":"Miquel"},"geometry":{"type":"Point","coordinates":[-0.342922,39.481368]}},{"type":"Feature","properties":{"ID":292,"Título":"S/T","Año":1990,"Material":"Hierro","Dimensiones":"360 x 430 x 430 cm","img":"https://servicios.lasprovincias.es/infografias/2026/06/upv-esculturas/292.jpg","Descripción":"Esta obra, de gran rigor compositivo, logra formas constructivistas recurriendo a la repetición de un elemento básico: el plano. Estos planos se articulan sin interferencias entre ellos, marcando con sus contornos la delimitación del espacio mientras que los juegos relacionales crean espacios intermedios que le otorgan la buscada tridimensionalidad. El recubrimiento de las superfícies con pintura de contrastadas tintas planas refuerza la intención volumétrica.","Apellido":"Negret","Nombre":"Edgar"},"geometry":{"type":"Point","coordinates":[-0.342922,39.481368]}},{"type":"Feature","properties":{"ID":472,"Título":"Siglo XXI","Año":2000,"Material":"Acero","Dimensiones":"500 x 480 x 150 cm","img":"https://servicios.lasprovincias.es/infografias/2026/06/upv-esculturas/472.jpg","Descripción":"En esta pieza monumental realizada en acero inoxidable, Noja usa la forma primaria del cilindro, característica presente en la mayor parte de su producción artística. En ella, la verticalidad continua se ve interrumpida por un nudo, símbolo de un conflicto que resuelve mediante la línea que sigue en ascensión.","Apellido":"Noja","Nombre":"José"},"geometry":{"type":"Point","coordinates":[-0.34765,39.483346]}},{"type":"Feature","properties":{"ID":2223,"Título":"Pirámide invertida","Año":2010,"Material":"Piedra","Dimensiones":"Variables","img":"https://servicios.lasprovincias.es/infografias/2026/06/upv-esculturas/2223.jpg","Descripción":"Enmarcada dentro de la corriente artística del Land Art, esta escultura refleja la preocupación por temas económicos, sociales y políticos de sus primeras obras, e invita a circular por el espacio descendiendo al interior de la pirámide, a la vez que propone una reflexión unida a su propia arquitectura, relacionándola con la estructura del poder, del sistema capitalista, invirtiendo el orden y el estrato de la pirámide. Con ella, Damián Ortega hace también un guiño a su propia cultura, pues la concepción original tiene como puntos de partida las referencias de las pirámides mayas, su forma constructiva, su orientación, su situación, su impacto en el territorio y su magnitud.","Apellido":"Ortega","Nombre":"Damián"},"geometry":{"type":"Point","coordinates":[-0.33859,39.480079]}},{"type":"Feature","properties":{"ID":745,"Título":"Torso","Año":2000,"Material":"Piedra","Dimensiones":"280 x 240 x 200 cm","img":"https://servicios.lasprovincias.es/infografias/2026/06/upv-esculturas/745.jpg","Descripción":"La obra representa una figura femenina y maternal elaborada con un gran sentido de la forma y la proporción. Destaca su proceso de realización, ya que fue tallada de un único gran bloque de piedra con puntero, maza y bujarda, como en la época de los romanos, y en la que  se pueden ver las marcas de la herramienta. Vicente Ortí aprovechó la propia forma de la rotura de la piedra y se limitó a resalzarla y complementarla, a lo que achaca la presencia y fuerza que desprende. Pesa entre 7 y 9 toneladas y tuvieron que hacer una cimentación especial para colocarla en el sitio pues por el peso podría ceder.","Apellido":"Ortí","Nombre":"Vicente"},"geometry":{"type":"Point","coordinates":[-0.345699,39.482709]}},{"type":"Feature","properties":{"ID":2224,"Título":"UNIVERSITAS RESONANS: escultura sonora fotosensible","Año":2007,"Material":"Hierro, acero inoxidable, micrófonos, células fotoconductoras, componentes electrónicos y altavoces.","Dimensiones":"Variables","img":"https://servicios.lasprovincias.es/infografias/2026/06/upv-esculturas/2224.jpg","Descripción":"La obra \"Resonatorium\" está concebida como una alegoría de la Universidad como gran resonador de ideas y de conocimientos, y a la vez, como máquina capaz de integrar los pensamientos y avances individuales armonizándolos con el saber universal. Los tubos de acero verticales son representaciones gráficas en tres dimensiones de diversas funciones matemáticas y simbolizan el pensamiento científico. Estas funciones matemáticas tienen también su proyección en el suelo mediante la luz (metáfora de la idea) que proyecta sus sombras dibujando cuadrados, círculos, triángulos etc., cuya configuración va variando a lo largo del día según la posición del sol. La escultura es sensible a la luz natural, a la posición del sol, al paso de las nubes etc. y un poco a las personas que entran y se mueven por la plataforma, de este modo, la escultura está pensada para que el público interaccione con ellas estableciéndose así un diálogo entre espectador y obra.","Apellido":"Orts","Nombre":"José Antonio"},"geometry":{"type":"Point","coordinates":[-0.347509,39.482935]}},{"type":"Feature","properties":{"ID":303,"Título":"Homenaje a Manolo Gil","Año":1989,"Material":"Hierro","Dimensiones":"161 x 60 x 70 cm","img":"https://servicios.lasprovincias.es/infografias/2026/06/upv-esculturas/303.jpg","Descripción":"Como el propio título indica, esta escultura es un homenaje al pintor valenciano con quien forjó una estrecha amistad, sostenida en un serio compromiso por la renovación de las artes plásticas. La obra está configurada miediante el juego de la línia y su dibujo, que define la apertura o cierre de los espacios, creando perfiles claros y rotundos y generando volúmenes curvos que envuelven de forma dinámica el espacio vacío mediante concavidades iluminadas y convexidades en sombra. Todos estos elementos, luz, sombra, volúmen lleno y vacío contribuyen a definir una forma espiritual en el espacio.","Apellido":"Oteiza","Nombre":"Jorge"},"geometry":{"type":"Point","coordinates":[-0.345833,39.481667]}},{"type":"Feature","properties":{"ID":4525,"Título":"Obelisco","Año":2007,"Material":"Bronce y hormigón","img":"https://servicios.lasprovincias.es/infografias/2026/06/upv-esculturas/4525.jpg","Descripción":"El obelisco está presente en diferentes civilizaciones pasadas y se presenta unido al poder político y al poder divino. En este caso, Riera propone su propia oda a la tecnología, pues la escultura está compuesta por piezas de origen residual de diferentes aparatos electrónicos como teclados, circuitos y cables que son fundidos en bronce y recubren a modo de bajo relieve la superficie del obelisco. Con esta obra diviniza la tecnología como eje del progreso y sabiduría de la humanidad y propone las matemáticas como un legado universal al futuro imitando a la Piedra Rosetta. El material informático se ha aplicado a modo de muro en seco de pequeña sillería y ripio en un juego compositivo de las diferentes piezas que complementan sus cuatro caras, unificado ahora por el bronce y la pátina, emparenta la escultura con sus conocidos cuadros.","Apellido":"Riera Ferrari","Nombre":"Joan"},"geometry":{"type":"Point","coordinates":[-0.3418,39.480245]}},{"type":"Feature","properties":{"ID":746,"Título":"Toro","Año":1998,"Material":"Bronce","Dimensiones":"100 x 325 x 150 cm","img":"https://servicios.lasprovincias.es/infografias/2026/06/upv-esculturas/746.jpg","Descripción":"Esta escultura, de la que existen otras 6 copias conocidas (Holanda, Vall D’ Alba, Francia y Palma de Mallorca),  está emplazada intencionadamente en un espacio que remite a un imaginario coso, y con ella Ripollés evita caer en los tópicos del secular dramatismo hispánico, presentando en su lugar una propuesta mediterránea, cercana al eclecticismo posmoderno, con una mirada que apuesta por la ironía y la sorpresa. Ripollés ha tomado aquí como recurso temático para la reinvención la figura elemental y rotunda del toro, en la que se aúnan vectores de fuerzas primitivas.","Apellido":"Ripollés","Nombre":"Juan García"},"geometry":{"type":"Point","coordinates":[-0.344217,39.481885]}},{"type":"Feature","properties":{"ID":806,"Título":"Toro","Año":2000,"Material":"Madera","Dimensiones":"387 x 250 x 67 cm","img":"https://servicios.lasprovincias.es/infografias/2026/06/upv-esculturas/806.jpg","Descripción":"Esta obra pasó a formar parte de la colección tras tres meses de colaboración docente llevada a cabo en el 2000 entre el artista-profesor y el Departemento de Escultura de la UPV y nos acerca a una visión sintética de esta figura animal, en la que se observa una influencia formal de la cultura ibérica y el arte rupestre, concretamente el del neolítico, en el que domina la síntesis esquemática cercana a la abstracción. En esta obra ha querido dejar vía libre a múltiples interpretaciones. En palabras propias de Rodríguez: \"puede ser una mesa que quiere ser barco, un barco que sueña alcanzar la luna, una altar de sacrificio de un toro, un puente…\"","Apellido":"Rodríguez","Nombre":"Héctor Guillermo"},"geometry":{"type":"Point","coordinates":[-0.343019,39.483418]}},{"type":"Feature","properties":{"ID":747,"Título":"Yunque","Año":2001,"Material":"Bronce","Dimensiones":"105 x 160 cm","img":"https://servicios.lasprovincias.es/infografias/2026/06/upv-esculturas/747.jpg","Descripción":"La obra representa un yunque, símbolo de la tierra y la materia, como instrumento utilizado por numerosos artistas y que, según la mitología clásica, el yunque de la fragua de Efestos-Vulcano fue testigo del nacimiento de las Musas, convirtiéndose así en símbolo de las Bellas Artes. Se trata de una escultura de corte objetual, precisa y rotunda, perteneciente a la serie sobre los yunques que el artista inició en París.","Apellido":"Romero de Terreros","Nombre":"Juan"},"geometry":{"type":"Point","coordinates":[-0.340106,39.48041]}},{"type":"Feature","properties":{"ID":467,"Título":"Otoño","Año":1992,"Material":"Acero","Dimensiones":"200 x 200 x 350 cm","img":"https://servicios.lasprovincias.es/infografias/2026/06/upv-esculturas/467.jpg","Descripción":"La obra \"Otoño\" se enmarca bajo la influencia constructivista de los artistas de la segunda mitad del siglo XX y es una abstracción coneptual y formal del otoño. Es además un ejemplo de su preocupación por entender el espacio, que le llevará a la búsqueda de los límites de la simplicidad en la estructuración del mismo.  En ella, se puede observar la combinación de formas perfectas así como una elección de colores pensada previamente para conseguir, efectivamente, una gama otoñal. Se trata de una escultura elegante, exquisita, en donde la sutileza actúa con las luces y las sombras.","Apellido":"Rueda","Nombre":"Gerardo"},"geometry":{"type":"Point","coordinates":[-0.346553,39.481116]}},{"type":"Feature","properties":{"ID":748,"Título":"Mefistófeles (Cuna - Ataúd)","Año":2001,"Material":"Madera Sabina y piedra Buñol","Dimensiones":"66 x 220 x 71 cm","img":"https://servicios.lasprovincias.es/infografias/2026/06/upv-esculturas/748.jpg","Descripción":"La obra \"Mefistófeles (cuna-ataúd)\" realizada en madera de sabina (especialmente longeva) y piedra (de marcada atemporalidad) es la forma e imagen que Sainz elige para materializar el mito de Fausto, quién vendió su alma a Mefisto (el diablo) por amor a la juventud encarnada en la figura de Margarita. De este modo el escultor quiere realizar una reflexión acerca de la estrecha relación existente entre la vida y la muerte, el nacer y el morir, siendo la cuna al mismo tiempo un ataúd. Esta relación queda reforzada por la íntima unión en el trabajo de las formas y volúmenes de la madera y la piedra. Estos dos materiales son los preferidos por el artista, que es capaz de moldearlos y combinarlos de un modo audaz y sensual, conjugando texturas, formas y tonalidades contrarias con sorprendente armonía.","Apellido":"Sainz","Nombre":"Francisco"},"geometry":{"type":"Point","coordinates":[-0.345789,39.482069]}},{"type":"Feature","properties":{"ID":468,"Título":"Toro rojo","Año":1962,"Material":"Acero","Dimensiones":"300 x 197 x 92 cm","img":"https://servicios.lasprovincias.es/infografias/2026/06/upv-esculturas/468.jpg","Descripción":"En \"Toro\" es en este caso la forma sintética de la figura taurina que nos traslada en cierto modo a la figura icónica del toro dentro del arte primitivo y la cultura íbera. Los juegos entre llenos y vacíos, el trabajo con la verticalidad o las características incisiones practicadas en la superficie son algunos de sus rasgos más personales. Se puede rastrear el cubismo en su investigación sobre el vacío activo, sobre el hueco y sobre la estructura por planos simples. Del mismo modo, el  surrealismo se deja ver en su inclinación por los volúmenes bulbosos y neumáticos y por un cierto organicismo fantástico.","Apellido":"Sánchez","Nombre":"Alberto"},"geometry":{"type":"Point","coordinates":[-0.346003,39.482876]}},{"type":"Feature","properties":{"ID":469,"Título":"Vuelo","Año":1996,"Material":"Acero","Dimensiones":"175 x 120 x 180 cm","img":"https://servicios.lasprovincias.es/infografias/2026/06/upv-esculturas/469.jpg","Descripción":"Esta pieza se presenta como una escultura de formas cercanas a la abstracción con forma animal/vegetal que, como su propio nombre indica, pretende captar la esencia del movimiento del vuelo de un ave o unas hojas por el viento. Realizada en acero, la escultura juega con masas y vacíos en los que el movimiento viene marcado por la confrontación entre lo pesado y lo ligero.","Apellido":"Sánchez","Nombre":"José Luis"},"geometry":{"type":"Point","coordinates":[-0.345437,39.481578]}},{"type":"Feature","properties":{"ID":470,"Título":"Velero","Año":1995,"Material":"Hierro","Dimensiones":"700 x 120 x 180 cm","img":"https://servicios.lasprovincias.es/infografias/2026/06/upv-esculturas/470.jpg","Descripción":"En la pieza \"Velero\", realizada en piedra y hierro, puede parecer que el escultor se aleja de su poética personal, caracterizada por el uso de materiales naturales como el barro, la madera, la paja, piedras o ramas. Sin embargo no es el caso puesto que la obra sigue en íntimo diálogo con la naturaleza, entendida como principio de reflexión. %La escultura, que forma parte de la serie dedicada a la recreación de este modelo de embarcación, se eleva desde la piedra base y queda conformada por férreos arcos tensionados mediante tirantes de acero, remitiendo al próposito de vencer su firme estabilidad  mediante el implícito vuelo expansivo que conlleva.","Apellido":"Schlosser","Nombre":"Adolfo"},"geometry":{"type":"Point","coordinates":[-0.346641,39.48092]}},{"type":"Feature","properties":{"ID":356,"Título":"Móvil","Año":1971,"Material":"Acero","Dimensiones":"280 x 300 x 300 cm","img":"https://servicios.lasprovincias.es/infografias/2026/06/upv-esculturas/356.jpg","Descripción":"Durante su etapa más tardía de creación, Sempere fascinado por la geometría dio el paso a la escultura con su serie de móviles, a la que pertenece esta obra y  en la que trabaja con lo cinético, lo óptico y la luz, basándose en criterios lumínicos y estructuras de repetición%La pieza está situada sobre una plataforma giratoria y construída mediante el uso predilecto de Sempere por la línea, omnipresente en su producción pictórica. Conociendo la obra pictórica del artista entenderemos que él mismo considere sus esculturas como pinturas en tres dimensiones o anti-esculturas.","Apellido":"Sempere","Nombre":"Eusebio"},"geometry":{"type":"Point","coordinates":[-0.346097,39.480504]}},{"type":"Feature","properties":{"ID":360,"Título":"Unidad yunta","Año":1970,"Material":"Bronce","Dimensiones":"400 x 240 x 200 cm","img":"https://servicios.lasprovincias.es/infografias/2026/06/upv-esculturas/360.jpg","Descripción":"Esta escultura pertenece a la serie llamada \"Unidades-Yunta\" en la que el artista simplifica temas ya tratados en otras series como Hombres-bóveda y Hombres-puerta.%La obra está compuesta de dos piezas independientes, de formas redondeadas, donde trata de plasmar la fusión de las fuerzas opuestas que configuran el mundo: lo material y lo espiritual, la vida y la muerte, el hombre y la mujer, el Yin y el Yan, quizás en una influencia mística de oriente. Estas formas nos sugieren un movimiento de integración de manera que incluso podrían llegar a acoplarse en una unión perfecta. El interior está hecho de bronce dorado, brillante y pulimentado, contrasta con la parte posterior de forma rugosa y de color negro, pone en contra posición a los materiales y a las formas: rugoso-liso, brillante-mate, convexo-cóncavo, luces-sobras, redondo-cuadrado, interior-exterior, todo esto nos hace pensar en una escultura que se complementa una parte de la otra y las dos figuras forman un todo. Es una figura abstracta pero tiene toques de realismo como un par de huellas de manos impresas en la parte posterior de las dos piezas.","Apellido":"Serrano","Nombre":"Pablo"},"geometry":{"type":"Point","coordinates":[-0.345431,39.481483]}},{"type":"Feature","properties":{"ID":749,"Título":"Muchacha en jarras","Año":2001,"Material":"Bronce","Dimensiones":"30 x 180 cm","img":"https://servicios.lasprovincias.es/infografias/2026/06/upv-esculturas/749.jpg","Descripción":"La obra \"Muchacha en jarras\" se inscribe en los parámetros de una figuración de tradición clásica, con elementos rescatados de la corriente mediterreaneísta, en un afán de recuperar los valores intrínsecos de la escultura alejándose de lo anecdótico, pictoricista, literario y epidérmico. Con una preocupación por el resalte de masas, planos y volúmenes, Silvestre de Edeta-desde la pericia y el bagaje de su formación académica- logra una estilizada figura de sintéticas y simplificadas formas aliando suavidad y rotundidad.","Apellido":"Silvestre Montesinos","Nombre":"Manuel"},"geometry":{"type":"Point","coordinates":[-0.339575,39.480525]}},{"type":"Feature","properties":{"ID":750,"Título":"Estructura permutacional","Año":2000,"Material":"Acero","Dimensiones":"2500 x 1500 x 1500 cm","img":"https://servicios.lasprovincias.es/infografias/2026/06/upv-esculturas/750.jpg","Descripción":"Esta pieza, perteneciente a la serie \"Estructuras Permutacionales,  está compuesta por placas cuadradas de chapa en acero inoxidable formando cubos encajados por yuxtaposición y superposicion que, a la manera de espejos, se reflejan entre sí y al mismo tiempo ofrecen imágenes del entorno donde está emplazada la escultura, haciendo que el espectador según las horas del día y el punto desde que la contemple, perciba imágenes diferentes y una sensación muy clara de movimiento. Otras esculturas de esta serie se encuentran instaladas en espacios públicos de diferentes ciudades de España (la plaza de la villa en Torija; el Paseo Reina Victoria de Santurce; la plaza de San Cristóbal de Alicante y el Museo de Arte Público, paseo de la Castellana de Madrid), Francia (Sarcelles) y Venezuela (Caracas).","Apellido":"Sobrino Ochoa","Nombre":"Francisco"},"geometry":{"type":"Point","coordinates":[-0.345222,39.482593]}},{"type":"Feature","properties":{"ID":751,"Título":"Mecánica plástica, sugerencia temporal","Año":2001,"Material":"Hierro","Dimensiones":"220 x 600 x 50 cm","img":"https://servicios.lasprovincias.es/infografias/2026/06/upv-esculturas/751.jpg","Descripción":"Bajo el nombre \"Mecánica plástica\" Soria realizó su primera serie de esculturas, que son el puente de enlace entre la pintura y las series posteriores. En esta obra observamos toda una variedad de matices expresivos que recuerdan el informalismo de su trabajo pictórico, como la textura rugosa de la superficie metálica o la proliferación de tornillos largos y tuercas, abandonando toda pretensión de escultura académica basada en el concepto de masa. Por eso, el espacio vacío tiene un protagonismo importante, ya que integra los planos geométricos del material con el espacio envolvente, dotando al conjunto de ligereza óptica.","Apellido":"Soria","Nombre":"Salvador"},"geometry":{"type":"Point","coordinates":[-0.342137,39.481234]}},{"type":"Feature","properties":{"ID":2225,"Título":"Museum","Año":2009,"Material":"Piedra","img":"https://servicios.lasprovincias.es/infografias/2026/06/upv-esculturas/2225.jpg","Descripción":"La escultura ha sido su interés permanente aunque ha desarrollado también trabajos en el ámbito del dibujo, la performance, fotografía o película. En este caso en la obra \"Museum\" se nos presenta un enorme bloque de piedra en el que se intuye una referencia a la arquitectura. Con esta pieza el artista incide en la construcción del%espacio cuadrado de dimensiones y proporciones perfectas que, a modo de caja, trata de%atrapar un tiempo y espacio suspendido. Junto con el título, Tropa nos conduce a una reflexión acerca del espacio expositivo del museo, su ocupación y con ello, las tipología de relaciones que se establecen entre la obra y el espectador.","Apellido":"Tropa","Nombre":"Francisco"},"geometry":{"type":"Point","coordinates":[-0.337679,39.479689]}},{"type":"Feature","properties":{"ID":1093,"Título":"Tótem","Año":2002,"Material":"Hierro","Dimensiones":"500 x 70 x 70 cm","img":"https://servicios.lasprovincias.es/infografias/2026/06/upv-esculturas/1093.jpg","Descripción":"La escultura \"Tótem\" está realizada a partir de desechos electrónicos del ordenador central utilizado por Bancaja durante la década de los noventa. Esta obra parece ser una versión moderna de los tótems de la mitología de algunas tribus, un emblema protector de una nueva sociedad tecnológica.","Apellido":"Alemany","Nombre":"Uiso"},"geometry":{"type":"Point","coordinates":[-0.342137,39.481234]}},{"type":"Feature","properties":{"ID":707,"Título":"Reina Mariana","Año":1997,"Material":"Bronce","Dimensiones":"170 x 124 x 89 cm","img":"https://servicios.lasprovincias.es/infografias/2026/06/upv-esculturas/707.jpg","Descripción":"En su trayectoria en solitario desarrolla la escultura en paralelo a su actividad pictórica, estableciendo un diálogo entre ambos medios.%Esta pieza es una de las reinterpretaciones del retrato de la Reina Mariana pintado por Velázquez que desde comienzos de la década de 1980 y de manera reiterada ha llevado a cabo Valdés, creando versiones con diferentes materiales y tamaños. En ella se conserva la forma general de la figura, aunque no tiene rostro, algo que está reñido con el mismo concepto de retrato. El detalle, traspasado a tres dimensiones, interpretado en bronce y presentado en solitario, se convierte así en el todo, que contiene referencias a su contexto original y, aun así, posee vida propia. Otras versiones de esta obra se encuentran en Valencia (c/ San Vicente; Universitat de Valencia), Murcia (Ayuntamiento de Ceutí), Mónaco (Les Terrasses du Casino) y en Bilbao (Museo Guggenheim), entre otros.","Apellido":"Valdés","Nombre":"Manolo"},"geometry":{"type":"Point","coordinates":[-0.345446,39.482482]}},{"type":"Feature","properties":{"ID":386,"Título":"Homenaje a Wifredo Lam","Año":1993,"Material":"Acero","Dimensiones":"217 x 217 x 80 cm","img":"https://servicios.lasprovincias.es/infografias/2026/06/upv-esculturas/386.jpg","Descripción":"En la escultura \"Homenaje a Wifredo Lam\", Villa Soberón pone de manifiesto la evolución de su obra, de carácter más figurativo en sus inicios hacia una expresión más abstracta. En ella consigue una complementariedad de frialdad y calidez a través del contraste matérico, formal y cromático de los materiales utilizados, un bloque de piedra de superficie rugosa y visiblemente golpeada sobre el que destaca una plancha de acero que presenta una curvatura a diferencia del resto de lineas y ángulos rectos de la obra. Villa Soberón deja testimonio con esta obra de su admiración hacia este importante pintor compatriota.","Apellido":"Villa Soberón","Nombre":"José"},"geometry":{"type":"Point","coordinates":[-0.345417,39.480765]}},{"type":"Feature","properties":{"ID":752,"Título":"Pascua","Año":2000,"Material":"Bronce","Dimensiones":"500 x 77 x 65 cm","img":"https://servicios.lasprovincias.es/infografias/2026/06/upv-esculturas/752.jpg","Descripción":"Trabaja en bronce, madera, piedra, acero y hormigón y ha creado algunas de las esculturas monumentales públicas más desafiantes de las últimas decadas, pues a menudo parecen retar a la gravedad, y en las que la combinación de elementos autónomos que la componen conservan su propia tensión y ritmo. Esta escultura está inspirada en los Moáis de la isla de Pascua. La superposición repetitiva de sus patinados bloques de bronce evocando la idea brancusiana de la columna sin fin, siempre reduciendo las cosas a lo esencial a la forma más simple pero que revela una enorme potencia.","Apellido":"Warren","Nombre":"Michael"},"geometry":{"type":"Point","coordinates":[-0.345701,39.482972]}}]}